{
"type": "FeatureCollection",
"name": "rajendra_nagar_green_areas",
"crs": { "type": "name", "properties": { "name": "urn:ogc:def:crs:OGC:1.3:CRS84" } },
"features": [
{ "type": "Feature", "properties": { "element": "way", "id": 208958215, "leisure": "park", "name": "Raja Mantri Udyan", "addr:city": null, "addr:district": null, "addr:postcode": null, "addr:street": null, "name:mr": "राजा मंत्री उद्यान", "name:etymology:wikidata": null, "landuse": null, "natural": null, "surface": null, "access": null, "operator": null, "operator:type": null }, "geometry": { "type": "Polygon", "coordinates": [ [ [ 73.8329586, 18.5059879 ], [ 73.8332457, 18.5060689 ], [ 73.8337823, 18.5063608 ], [ 73.833598, 18.5066185 ], [ 73.8328165, 18.5062674 ], [ 73.8329586, 18.5059879 ] ] ] } },
{ "type": "Feature", "properties": { "element": "way", "id": 208958216, "leisure": "park", "name": "Sachin Tendulkar Jogging Park", "addr:city": null, "addr:district": null, "addr:postcode": null, "addr:street": null, "name:mr": "सचिन तेंडुलकर जॉगिंग पार्क", "name:etymology:wikidata": "Q9488", "landuse": null, "natural": null, "surface": null, "access": null, "operator": null, "operator:type": null }, "geometry": { "type": "Polygon", "coordinates": [ [ [ 73.8399566, 18.5044755 ], [ 73.8407058, 18.5044547 ], [ 73.840707, 18.5041618 ], [ 73.8403555, 18.5042264 ], [ 73.8400685, 18.5043117 ], [ 73.8399506, 18.5043924 ], [ 73.8399566, 18.5044755 ] ] ] } },
{ "type": "Feature", "properties": { "element": "way", "id": 208958226, "leisure": null, "name": null, "addr:city": null, "addr:district": null, "addr:postcode": null, "addr:street": null, "name:mr": null, "name:etymology:wikidata": null, "landuse": "recreation_ground", "natural": null, "surface": null, "access": null, "operator": null, "operator:type": null }, "geometry": { "type": "Polygon", "coordinates": [ [ [ 73.8303202, 18.5055627 ], [ 73.8304428, 18.5058966 ], [ 73.8304908, 18.5059239 ], [ 73.8306221, 18.5059239 ], [ 73.8306927, 18.5058939 ], [ 73.8307462, 18.5057901 ], [ 73.8307608, 18.5056171 ], [ 73.8306878, 18.5056148 ], [ 73.8306878, 18.5054972 ], [ 73.8303935, 18.5054811 ], [ 73.8303597, 18.5054972 ], [ 73.8303718, 18.5055237 ], [ 73.8303645, 18.5055468 ], [ 73.8303202, 18.5055627 ] ] ] } },
{ "type": "Feature", "properties": { "element": "way", "id": 208958233, "leisure": "park", "name": null, "addr:city": null, "addr:district": null, "addr:postcode": null, "addr:street": null, "name:mr": null, "name:etymology:wikidata": null, "landuse": null, "natural": null, "surface": null, "access": null, "operator": null, "operator:type": null }, "geometry": { "type": "Polygon", "coordinates": [ [ [ 73.8298015, 18.5054914 ], [ 73.8299814, 18.5055837 ], [ 73.8300617, 18.505669 ], [ 73.8303202, 18.5055627 ], [ 73.8303645, 18.5055468 ], [ 73.8303718, 18.5055237 ], [ 73.8303597, 18.5054972 ], [ 73.8298827, 18.5053058 ], [ 73.8298015, 18.5054914 ] ] ] } },
{ "type": "Feature", "properties": { "element": "way", "id": 210718054, "leisure": "park", "name": null, "addr:city": null, "addr:district": null, "addr:postcode": null, "addr:street": null, "name:mr": null, "name:etymology:wikidata": null, "landuse": null, "natural": null, "surface": null, "access": null, "operator": null, "operator:type": null }, "geometry": { "type": "Polygon", "coordinates": [ [ [ 73.8459918, 18.504875 ], [ 73.846567, 18.5049922 ], [ 73.8464556, 18.5055508 ], [ 73.8464039, 18.5056206 ], [ 73.8463303, 18.5056546 ], [ 73.84623, 18.5056508 ], [ 73.8460858, 18.5056206 ], [ 73.8459425, 18.5055659 ], [ 73.8458798, 18.5054876 ], [ 73.845846, 18.505414 ], [ 73.845848, 18.505346 ], [ 73.8459918, 18.504875 ] ] ] } },
{ "type": "Feature", "properties": { "element": "way", "id": 210718059, "leisure": "park", "name": null, "addr:city": null, "addr:district": null, "addr:postcode": null, "addr:street": null, "name:mr": null, "name:etymology:wikidata": null, "landuse": null, "natural": null, "surface": null, "access": null, "operator": null, "operator:type": null }, "geometry": { "type": "Polygon", "coordinates": [ [ [ 73.8376484, 18.4975257 ], [ 73.8383213, 18.4975371 ], [ 73.8383477, 18.4978903 ], [ 73.8376532, 18.4978789 ], [ 73.8376484, 18.4975257 ] ] ] } },
{ "type": "Feature", "properties": { "element": "way", "id": 218193803, "leisure": null, "name": null, "addr:city": null, "addr:district": null, "addr:postcode": null, "addr:street": null, "name:mr": null, "name:etymology:wikidata": null, "landuse": null, "natural": "wood", "surface": null, "access": null, "operator": null, "operator:type": null }, "geometry": { "type": "Polygon", "coordinates": [ [ [ 73.842011, 18.4886632 ], [ 73.8413497, 18.487957 ], [ 73.840581, 18.4886043 ], [ 73.8409072, 18.4895134 ], [ 73.8404378, 18.4896311 ], [ 73.8402659, 18.4907811 ], [ 73.8402682, 18.4919759 ], [ 73.8409192, 18.4926012 ], [ 73.8415927, 18.4932644 ], [ 73.8421475, 18.4938583 ], [ 73.8424701, 18.4940901 ], [ 73.8427167, 18.4943265 ], [ 73.8438719, 18.4952343 ], [ 73.8443396, 18.4946815 ], [ 73.8453042, 18.4955904 ], [ 73.8450884, 18.4958522 ], [ 73.8447766, 18.4961013 ], [ 73.8452772, 18.4971227 ], [ 73.8466663, 18.4983594 ], [ 73.8471448, 18.4985359 ], [ 73.8475523, 18.4985801 ], [ 73.8480231, 18.4984627 ], [ 73.8483126, 18.4983113 ], [ 73.8486069, 18.4982654 ], [ 73.8489647, 18.4981303 ], [ 73.8490406, 18.4985187 ], [ 73.8494524, 18.4984845 ], [ 73.8494538, 18.4978303 ], [ 73.8491769, 18.4963917 ], [ 73.8488934, 18.4964681 ], [ 73.8487099, 18.4963123 ], [ 73.8479208, 18.4967307 ], [ 73.8471092, 18.4955212 ], [ 73.8462618, 18.4948089 ], [ 73.84575, 18.494556 ], [ 73.8450544, 18.494159 ], [ 73.8445777, 18.493713 ], [ 73.8445275, 18.493577 ], [ 73.8447916, 18.4933387 ], [ 73.8445693, 18.4932502 ], [ 73.8443503, 18.4932135 ], [ 73.8441893, 18.4930455 ], [ 73.8441217, 18.4927462 ], [ 73.8440669, 18.49223 ], [ 73.844083, 18.4917352 ], [ 73.8440701, 18.4915 ], [ 73.8439252, 18.4913595 ], [ 73.8437609, 18.4912923 ], [ 73.8434743, 18.4912709 ], [ 73.8431232, 18.4912831 ], [ 73.8428913, 18.4912434 ], [ 73.8426562, 18.4909624 ], [ 73.8425113, 18.4905195 ], [ 73.8423503, 18.4902355 ], [ 73.8420797, 18.4900064 ], [ 73.8419381, 18.4897993 ], [ 73.8418106, 18.4890952 ], [ 73.8418607, 18.4889354 ], [ 73.842011, 18.4886632 ] ] ] } },
{ "type": "Feature", "properties": { "element": "way", "id": 218229461, "leisure": "garden", "name": null, "addr:city": null, "addr:district": null, "addr:postcode": null, "addr:street": null, "name:mr": null, "name:etymology:wikidata": null, "landuse": null, "natural": null, "surface": null, "access": null, "operator": null, "operator:type": null }, "geometry": { "type": "Polygon", "coordinates": [ [ [ 73.8453147, 18.5029744 ], [ 73.8453343, 18.50295 ], [ 73.8453511, 18.5029383 ], [ 73.8453713, 18.5029345 ], [ 73.8453864, 18.5029399 ], [ 73.8454044, 18.5029585 ], [ 73.8454105, 18.5029813 ], [ 73.8454027, 18.5031849 ], [ 73.8453948, 18.5032115 ], [ 73.8453797, 18.5032253 ], [ 73.8453623, 18.5032333 ], [ 73.8453427, 18.5032365 ], [ 73.8453175, 18.5032333 ], [ 73.8452939, 18.5032237 ], [ 73.8452782, 18.5032046 ], [ 73.8452715, 18.5031855 ], [ 73.8453147, 18.5029744 ] ] ] } },
{ "type": "Feature", "properties": { "element": "way", "id": 218422409, "leisure": null, "name": null, "addr:city": null, "addr:district": null, "addr:postcode": null, "addr:street": null, "name:mr": null, "name:etymology:wikidata": null, "landuse": null, "natural": "wood", "surface": null, "access": null, "operator": null, "operator:type": null }, "geometry": { "type": "Polygon", "coordinates": [ [ [ 73.8382821, 18.5092732 ], [ 73.8387537, 18.5096957 ], [ 73.8394992, 18.5104769 ], [ 73.8393645, 18.5106479 ], [ 73.8382017, 18.5093742 ], [ 73.8382821, 18.5092732 ] ] ] } },
{ "type": "Feature", "properties": { "element": "way", "id": 218691427, "leisure": null, "name": null, "addr:city": null, "addr:district": null, "addr:postcode": null, "addr:street": null, "name:mr": null, "name:etymology:wikidata": null, "landuse": null, "natural": "wood", "surface": null, "access": null, "operator": null, "operator:type": null }, "geometry": { "type": "Polygon", "coordinates": [ [ [ 73.8388141, 18.5058882 ], [ 73.8390272, 18.5061352 ], [ 73.8391716, 18.5063817 ], [ 73.8392248, 18.5065432 ], [ 73.8392111, 18.5069786 ], [ 73.8391412, 18.5072382 ], [ 73.8389301, 18.5076805 ], [ 73.8388082, 18.5078822 ], [ 73.8386131, 18.5080698 ], [ 73.838414, 18.5079051 ], [ 73.8382235, 18.5077423 ], [ 73.8380572, 18.5075236 ], [ 73.837675, 18.5069704 ], [ 73.8373746, 18.5064477 ], [ 73.8372767, 18.5062213 ], [ 73.8370058, 18.5053705 ], [ 73.8369937, 18.5053006 ], [ 73.8369951, 18.5052141 ], [ 73.8370273, 18.5047524 ], [ 73.8373652, 18.5047448 ], [ 73.8373826, 18.5056172 ], [ 73.8377541, 18.5065011 ], [ 73.8380268, 18.5069938 ], [ 73.8385969, 18.5075611 ], [ 73.8389181, 18.5065117 ], [ 73.8388141, 18.5058882 ] ] ] } },
{ "type": "Feature", "properties": { "element": "way", "id": 282102110, "leisure": null, "name": null, "addr:city": null, "addr:district": null, "addr:postcode": null, "addr:street": null, "name:mr": null, "name:etymology:wikidata": null, "landuse": "recreation_ground", "natural": null, "surface": null, "access": null, "operator": null, "operator:type": null }, "geometry": { "type": "Polygon", "coordinates": [ [ [ 73.8451085, 18.5074372 ], [ 73.8451253, 18.5071874 ], [ 73.8448506, 18.5071708 ], [ 73.8448339, 18.5074206 ], [ 73.8451085, 18.5074372 ] ] ] } },
{ "type": "Feature", "properties": { "element": "way", "id": 331532100, "leisure": "park", "name": "Madar Teresa Garden", "addr:city": "Pune", "addr:district": "Pune", "addr:postcode": "411030", "addr:street": "Dattawadi Road", "name:mr": null, "name:etymology:wikidata": null, "landuse": null, "natural": null, "surface": null, "access": null, "operator": null, "operator:type": null }, "geometry": { "type": "Polygon", "coordinates": [ [ [ 73.8375305, 18.5024482 ], [ 73.8380411, 18.5024482 ], [ 73.8380483, 18.5018323 ], [ 73.8375684, 18.5018802 ], [ 73.8375305, 18.5024482 ] ] ] } },
{ "type": "Feature", "properties": { "element": "way", "id": 1149332906, "leisure": null, "name": null, "addr:city": null, "addr:district": null, "addr:postcode": null, "addr:street": null, "name:mr": null, "name:etymology:wikidata": null, "landuse": "recreation_ground", "natural": null, "surface": "grass", "access": null, "operator": null, "operator:type": null }, "geometry": { "type": "Polygon", "coordinates": [ [ [ 73.8327591, 18.5022123 ], [ 73.8325528, 18.5022444 ], [ 73.8325523, 18.50221 ], [ 73.8325614, 18.5021828 ], [ 73.8325827, 18.5021549 ], [ 73.8325969, 18.5021439 ], [ 73.8326301, 18.5021299 ], [ 73.832653, 18.5021269 ], [ 73.8326889, 18.5021321 ], [ 73.8327203, 18.5021482 ], [ 73.8327444, 18.5021739 ], [ 73.8327591, 18.5022123 ] ] ] } },
{ "type": "Feature", "properties": { "element": "way", "id": 1149600570, "leisure": "park", "name": null, "addr:city": null, "addr:district": null, "addr:postcode": null, "addr:street": null, "name:mr": null, "name:etymology:wikidata": null, "landuse": null, "natural": null, "surface": null, "access": "private", "operator": null, "operator:type": null }, "geometry": { "type": "Polygon", "coordinates": [ [ [ 73.8330356, 18.5009587 ], [ 73.8331907, 18.5009429 ], [ 73.8332078, 18.500984 ], [ 73.8332277, 18.5012156 ], [ 73.8330962, 18.5012415 ], [ 73.8330697, 18.5011999 ], [ 73.8330675, 18.5011291 ], [ 73.8330645, 18.5010362 ], [ 73.8330403, 18.5009985 ], [ 73.8330356, 18.5009587 ] ] ] } },
{ "type": "Feature", "properties": { "element": "way", "id": 1162024587, "leisure": null, "name": null, "addr:city": null, "addr:district": null, "addr:postcode": null, "addr:street": null, "name:mr": null, "name:etymology:wikidata": null, "landuse": null, "natural": "wood", "surface": null, "access": null, "operator": null, "operator:type": null }, "geometry": { "type": "Polygon", "coordinates": [ [ [ 73.8403439, 18.50959 ], [ 73.8398409, 18.5090904 ], [ 73.8392615, 18.5084494 ], [ 73.8389678, 18.5080921 ], [ 73.8389531, 18.5080253 ], [ 73.8389746, 18.5079635 ], [ 73.8391918, 18.5076101 ], [ 73.8393447, 18.5072031 ], [ 73.8394412, 18.5068445 ], [ 73.8393661, 18.5064375 ], [ 73.8388485, 18.5058156 ], [ 73.838827, 18.5057075 ], [ 73.8388284, 18.5054723 ], [ 73.8389061, 18.5053006 ], [ 73.8391853, 18.5049013 ], [ 73.8393688, 18.5049521 ], [ 73.8392132, 18.5051327 ], [ 73.8391301, 18.5052777 ], [ 73.8391086, 18.5054659 ], [ 73.8391489, 18.5060153 ], [ 73.8393554, 18.5060738 ], [ 73.8394681, 18.5061603 ], [ 73.8395244, 18.5062646 ], [ 73.8395298, 18.5066614 ], [ 73.8405329, 18.5066588 ], [ 73.8405356, 18.506931 ], [ 73.841072, 18.506931 ], [ 73.8410739, 18.5079502 ], [ 73.8407334, 18.5079501 ], [ 73.8407341, 18.5081976 ], [ 73.840578, 18.5082099 ], [ 73.8402754, 18.5089403 ], [ 73.84049, 18.5092404 ], [ 73.8404229, 18.5093371 ], [ 73.8405074, 18.5094299 ], [ 73.8403439, 18.50959 ] ] ] } },
{ "type": "Feature", "properties": { "element": "way", "id": 1550970138, "leisure": "park", "name": "Janta park", "addr:city": "pune", "addr:district": null, "addr:postcode": "411009", "addr:street": "Janta Vasahat, Parvati Paytha, Pune, Maharashtra", "name:mr": null, "name:etymology:wikidata": null, "landuse": null, "natural": null, "surface": null, "access": null, "operator": "Lokande suraj", "operator:type": "public" }, "geometry": { "type": "Polygon", "coordinates": [ [ [ 73.8428229, 18.4966419 ], [ 73.8430772, 18.4964081 ], [ 73.8424932, 18.4958763 ], [ 73.8422419, 18.4961251 ], [ 73.8428229, 18.4966419 ] ] ] } }
]
}
