{
"type": "FeatureCollection",
"name": "rajendra_nagar_aoi",
"crs": { "type": "name", "properties": { "name": "urn:ogc:def:crs:OGC:1.3:CRS84" } },
"features": [
{"type":"Feature","properties":{"fid":1},"geometry":{"type":"Polygon","coordinates":[[[73.834079273146344,18.508929732146129],[73.837558669227292,18.509383999721198],[73.844971295660628,18.509383999721198],[73.849887833601102,18.5050325449896],[73.849862620586023,18.499844127477033],[73.843861922997135,18.496687962502488],[73.836424083548692,18.496185839984644],[73.830675516110603,18.500394059362797],[73.829919125658236,18.505773734655836],[73.834079273146344,18.508929732146129]]]}}
]
}
